{"type": "FeatureCollection", "features": [ {"type": "Feature", "properties": {"norad_id": 43010, "name": "FENGYUN 3D", "group": "weather", "lat": 3.1554795621125367, "lon": 129.64934499851935, "alt_km": 828.3418150152138, "timestamp": "2025-12-08T21:31:04.318414+00:00", "meta": {"OBJECT_NAME": "FENGYUN 3D", "OBJECT_ID": "2017-072A", "EPOCH": "2025-12-08T13:55:20.519040", "MEAN_MOTION": 14.19682268, "ECCENTRICITY": 8.252e-05, "INCLINATION": 98.9889, "RA_OF_ASC_NODE": 308.8282, "ARG_OF_PERICENTER": 194.4517, "MEAN_ANOMALY": 165.6635, "EPHEMERIS_TYPE": 0, "CLASSIFICATION_TYPE": "U", "NORAD_CAT_ID": 43010, "ELEMENT_SET_NO": 999, "REV_AT_EPOCH": 41794, "BSTAR": 0.00013935206, "MEAN_MOTION_DOT": 2.49e-06, "MEAN_MOTION_DDOT": 0}, "tle": {"line1": "1 43010U 17072A   25342.58009860  .00000249  00000+0  13935-3 0  9995", "line2": "2 43010  98.9889 308.8282 0000825 194.4517 165.6635 14.19682268417942"}}, "geometry": {"type": "Point", "coordinates": [129.64934499851935, 3.1554795621125367]}}, {"type": "Feature", "properties": {"norad_id": 43013, "name": "NOAA 20 (JPSS-1)", "group": "weather", "lat": -28.47189086356463, "lon": -75.96824226941786, "alt_km": 833.5450911893804, "timestamp": "2025-12-08T21:31:04.318447+00:00", "meta": {"OBJECT_NAME": "NOAA 20 (JPSS-1)", "OBJECT_ID": "2017-073A", "EPOCH": "2025-12-08T13:11:42.549792", "MEAN_MOTION": 14.19524052, "ECCENTRICITY": 0.00021317, "INCLINATION": 98.7593, "RA_OF_ASC_NODE": 278.8925, "ARG_OF_PERICENTER": 93.523, "MEAN_ANOMALY": 266.619, "EPHEMERIS_TYPE": 0, "CLASSIFICATION_TYPE": "U", "NORAD_CAT_ID": 43013, "ELEMENT_SET_NO": 999, "REV_AT_EPOCH": 41742, "BSTAR": 0.00011292911, "MEAN_MOTION_DOT": 1.94e-06, "MEAN_MOTION_DDOT": 0}, "tle": {"line1": "1 43013U 17073A   25342.54979803  .00000194  00000+0  11293-3 0  9992", "line2": "2 43013  98.7593 278.8925 0002131  93.5230 266.6190 14.19524052417425"}}, "geometry": {"type": "Point", "coordinates": [-75.96824226941786, -28.47189086356463]}}, {"type": "Feature", "properties": {"norad_id": 43226, "name": "GOES 17", "group": "weather", "lat": -0.3124819602030996, "lon": -48.81317463769017, "alt_km": 35774.5251507474, "timestamp": "2025-12-08T21:31:04.318463+00:00", "meta": {"OBJECT_NAME": "GOES 17", "OBJECT_ID": "2018-022A", "EPOCH": "2025-12-08T12:29:48.227712", "MEAN_MOTION": 1.0027181, "ECCENTRICITY": 0.00034323, "INCLINATION": 0.4489, "RA_OF_ASC_NODE": 89.1818, "ARG_OF_PERICENTER": 185.1908, "MEAN_ANOMALY": 261.1072, "EPHEMERIS_TYPE": 0, "CLASSIFICATION_TYPE": "U", "NORAD_CAT_ID": 43226, "ELEMENT_SET_NO": 999, "REV_AT_EPOCH": 2851, "BSTAR": 0, "MEAN_MOTION_DOT": -1.8e-06, "MEAN_MOTION_DDOT": 0}, "tle": {"line1": "1 43226U 18022A   25342.52069708 -.00000180  00000+0  00000+0 0  9991", "line2": "2 43226   0.4489  89.1818 0003432 185.1908 261.1072  1.00271810 28518"}}, "geometry": {"type": "Point", "coordinates": [-48.81317463769017, -0.3124819602030996]}}, {"type": "Feature", "properties": {"norad_id": 43491, "name": "FENGYUN 2H", "group": "weather", "lat": 1.6020464594878558, "lon": 119.97236234142636, "alt_km": 35793.34273263652, "timestamp": "2025-12-08T21:31:04.318477+00:00", "meta": {"OBJECT_NAME": "FENGYUN 2H", "OBJECT_ID": "2018-050A", "EPOCH": "2025-12-08T13:58:57.568800", "MEAN_MOTION": 1.00271316, "ECCENTRICITY": 0.0002848, "INCLINATION": 2.54, "RA_OF_ASC_NODE": 81.3746, "ARG_OF_PERICENTER": 165.9406, "MEAN_ANOMALY": 119.3751, "EPHEMERIS_TYPE": 0, "CLASSIFICATION_TYPE": "U", "NORAD_CAT_ID": 43491, "ELEMENT_SET_NO": 999, "REV_AT_EPOCH": 2752, "BSTAR": 0, "MEAN_MOTION_DOT": -1.28e-06, "MEAN_MOTION_DDOT": 0}, "tle": {"line1": "1 43491U 18050A   25342.58261075 -.00000128  00000+0  00000+0 0  9995", "line2": "2 43491   2.5400  81.3746 0002848 165.9406 119.3751  1.00271316 27520"}}, "geometry": {"type": "Point", "coordinates": [119.97236234142636, 1.6020464594878558]}}, {"type": "Feature", "properties": {"norad_id": 43689, "name": "METOP-C", "group": "weather", "lat": 80.02432626455531, "lon": -19.71998856034758, "alt_km": 811.9633271642151, "timestamp": "2025-12-08T21:31:04.318490+00:00", "meta": {"OBJECT_NAME": "METOP-C", "OBJECT_ID": "2018-087A", "EPOCH": "2025-12-08T14:21:43.075008", "MEAN_MOTION": 14.21509678, "ECCENTRICITY": 0.00015102, "INCLINATION": 98.6935, "RA_OF_ASC_NODE": 40.4314, "ARG_OF_PERICENTER": 49.445, "MEAN_ANOMALY": 310.6859, "EPHEMERIS_TYPE": 0, "CLASSIFICATION_TYPE": "U", "NORAD_CAT_ID": 43689, "ELEMENT_SET_NO": 999, "REV_AT_EPOCH": 36775, "BSTAR": 0.00015427048, "MEAN_MOTION_DOT": 2.94e-06, "MEAN_MOTION_DDOT": 0}, "tle": {"line1": "1 43689U 18087A   25342.59841522  .00000294  00000+0  15427-3 0  9992", "line2": "2 43689  98.6935  40.4314 0001510  49.4450 310.6859 14.21509678367754"}}, "geometry": {"type": "Point", "coordinates": [-19.71998856034758, 80.02432626455531]}}, {"type": "Feature", "properties": {"norad_id": 43823, "name": "GEO-KOMPSAT-2A", "group": "weather", "lat": 0.04386092993422963, "lon": 168.9282051270717, "alt_km": 35785.773784326084, "timestamp": "2025-12-08T21:31:04.318502+00:00", "meta": {"OBJECT_NAME": "GEO-KOMPSAT-2A", "OBJECT_ID": "2018-100A", "EPOCH": "2025-12-08T09:04:40.751616", "MEAN_MOTION": 1.00270893, "ECCENTRICITY": 1.774e-05, "INCLINATION": 0.0576, "RA_OF_ASC_NODE": 113.8278, "ARG_OF_PERICENTER": 87.1447, "MEAN_ANOMALY": 140.8536, "EPHEMERIS_TYPE": 0, "CLASSIFICATION_TYPE": "U", "NORAD_CAT_ID": 43823, "ELEMENT_SET_NO": 999, "REV_AT_EPOCH": 2571, "BSTAR": 0, "MEAN_MOTION_DOT": -3.41e-06, "MEAN_MOTION_DDOT": 0}, "tle": {"line1": "1 43823U 18100A   25342.37824944 -.00000341  00000+0  00000+0 0  9994", "line2": "2 43823   0.0576 113.8278 0000177  87.1447 140.8536  1.00270893 25718"}}, "geometry": {"type": "Point", "coordinates": [168.9282051270717, 0.04386092993422963]}}, {"type": "Feature", "properties": {"norad_id": 44387, "name": "METEOR-M2 2", "group": "weather", "lat": 58.320137645702424, "lon": 157.2822741306568, "alt_km": 804.5347443312339, "timestamp": "2025-12-08T21:31:04.318513+00:00", "meta": {"OBJECT_NAME": "METEOR-M2 2", "OBJECT_ID": "2019-038A", "EPOCH": "2025-12-08T14:12:36.678816", "MEAN_MOTION": 14.24289142, "ECCENTRICITY": 0.00011545, "INCLINATION": 98.8969, "RA_OF_ASC_NODE": 322.2703, "ARG_OF_PERICENTER": 156.1709, "MEAN_ANOMALY": 203.9523, "EPHEMERIS_TYPE": 0, "CLASSIFICATION_TYPE": "U", "NORAD_CAT_ID": 44387, "ELEMENT_SET_NO": 999, "REV_AT_EPOCH": 33416, "BSTAR": 0.00017381937, "MEAN_MOTION_DOT": 3.56e-06, "MEAN_MOTION_DDOT": 0}, "tle": {"line1": "1 44387U 19038A   25342.59209119  .00000356  00000+0  17382-3 0  9996", "line2": "2 44387  98.8969 322.2703 0001154 156.1709 203.9523 14.24289142334164"}}, "geometry": {"type": "Point", "coordinates": [157.2822741306568, 58.320137645702424]}}, {"type": "Feature", "properties": {"norad_id": 47719, "name": "ARKTIKA-M 1", "group": "weather", "lat": 60.27594757532878, "lon": -157.71198553241956, "alt_km": 35932.79968778048, "timestamp": "2025-12-08T21:31:04.318527+00:00", "meta": {"OBJECT_NAME": "ARKTIKA-M 1", "OBJECT_ID": "2021-016A", "EPOCH": "2025-12-01T02:41:41.634816", "MEAN_MOTION": 2.00613156, "ECCENTRICITY": 0.71974708, "INCLINATION": 63.1756, "RA_OF_ASC_NODE": 85.6045, "ARG_OF_PERICENTER": 269.084, "MEAN_ANOMALY": 15.7076, "EPHEMERIS_TYPE": 0, "CLASSIFICATION_TYPE": "U", "NORAD_CAT_ID": 47719, "ELEMENT_SET_NO": 999, "REV_AT_EPOCH": 3481, "BSTAR": 0, "MEAN_MOTION_DOT": -1.2e-07, "MEAN_MOTION_DDOT": 0}, "tle": {"line1": "1 47719U 21016A   25335.11228744 -.00000012  00000+0  00000+0 0  9997", "line2": "2 47719  63.1756  85.6045 7197470 269.0840  15.7076  2.00613156 34816"}}, "geometry": {"type": "Point", "coordinates": [-157.71198553241956, 60.27594757532878]}}, {"type": "Feature", "properties": {"norad_id": 49008, "name": "FENGYUN 3E", "group": "weather", "lat": 38.612393853846655, "lon": 170.52668897688284, "alt_km": 823.1720210009607, "timestamp": "2025-12-08T21:31:04.318542+00:00", "meta": {"OBJECT_NAME": "FENGYUN 3E", "OBJECT_ID": "2021-062A", "EPOCH": "2025-12-08T14:05:31.742016", "MEAN_MOTION": 14.19879212, "ECCENTRICITY": 5.756e-05, "INCLINATION": 98.7476, "RA_OF_ASC_NODE": 343.1576, "ARG_OF_PERICENTER": 290.535, "MEAN_ANOMALY": 69.5765, "EPHEMERIS_TYPE": 0, "CLASSIFICATION_TYPE": "U", "NORAD_CAT_ID": 49008, "ELEMENT_SET_NO": 999, "REV_AT_EPOCH": 22953, "BSTAR": 4.8151068e-05, "MEAN_MOTION_DOT": 5.8e-07, "MEAN_MOTION_DDOT": 0}, "tle": {"line1": "1 49008U 21062A   25342.58717294  .00000058  00000+0  48151-4 0  9996", "line2": "2 49008  98.7476 343.1576 0000575 290.5350  69.5765 14.19879212229537"}}, "geometry": {"type": "Point", "coordinates": [170.52668897688284, 38.612393853846655]}}, {"type": "Feature", "properties": {"norad_id": 51850, "name": "GOES 18", "group": "weather", "lat": -0.0037247155194862253, "lon": -96.34522319496776, "alt_km": 35783.811495616406, "timestamp": "2025-12-08T21:31:04.318554+00:00", "meta": {"OBJECT_NAME": "GOES 18", "OBJECT_ID": "2022-021A", "EPOCH": "2025-12-08T12:57:10.984608", "MEAN_MOTION": 1.00270666, "ECCENTRICITY": 7.221e-05, "INCLINATION": 0.0107, "RA_OF_ASC_NODE": 92.8098, "ARG_OF_PERICENTER": 204.2703, "MEAN_ANOMALY": 197.7607, "EPHEMERIS_TYPE": 0, "CLASSIFICATION_TYPE": "U", "NORAD_CAT_ID": 51850, "ELEMENT_SET_NO": 999, "REV_AT_EPOCH": 468, "BSTAR": 0, "MEAN_MOTION_DOT": 9.9e-07, "MEAN_MOTION_DDOT": 0}, "tle": {"line1": "1 51850U 22021A   25342.53971047  .00000099  00000+0  00000+0 0  9994", "line2": "2 51850   0.0107  92.8098 0000722 204.2703 197.7607  1.00270666  4687"}}, "geometry": {"type": "Point", "coordinates": [-96.34522319496776, -0.0037247155194862253]}}]}